[{"OBJECT_NAME":"JUGNU","OBJECT_ID":"2011-058B","EPOCH":"2026-03-09T11:56:36.486528","MEAN_MOTION":14.1374078,"ECCENTRICITY":0.00187632,"INCLINATION":19.9594,"RA_OF_ASC_NODE":194.0637,"ARG_OF_PERICENTER":55.3849,"MEAN_ANOMALY":14.6148,"EPHEMERIS_TYPE":0,"CLASSIFICATION_TYPE":"U","NORAD_CAT_ID":37839,"ELEMENT_SET_NO":999,"REV_AT_EPOCH":74490,"BSTAR":0.00014293025,"MEAN_MOTION_DOT":5.41e-6,"MEAN_MOTION_DDOT":0},{"OBJECT_NAME":"THORAD AGENA D DEB","OBJECT_ID":"1970-025AN","EPOCH":"2026-03-09T21:54:23.942304","MEAN_MOTION":14.16285735,"ECCENTRICITY":0.00244949,"INCLINATION":100.0229,"RA_OF_ASC_NODE":229.4444,"ARG_OF_PERICENTER":343.3432,"MEAN_ANOMALY":16.6931,"EPHEMERIS_TYPE":0,"CLASSIFICATION_TYPE":"U","NORAD_CAT_ID":4654,"ELEMENT_SET_NO":999,"REV_AT_EPOCH":82588,"BSTAR":0.0015755706,"MEAN_MOTION_DOT":3.08e-5,"MEAN_MOTION_DDOT":0}]
